STARLINK-32896          
1 62959U 25029M   26068.76029394  .00024050  00000+0  82153-3 0  9993
2 62959  53.1581 232.4674 0001280  66.5095 293.6040 15.30198285 61324
SCS-01 D                
1 63985U 25100D   26068.75607686  .00032471  00000+0  10528-2 0  9990
2 63985  97.3730 145.4097 0006346 266.2302  93.8214 15.31902149 45621
